{
  "norad_id": 59025,
  "name": "STARLINK-31178",
  "history": [
    {
      "epoch": "2026-03-28T19:56:48.501888",
      "apogee_km": 483.6957745660129,
      "perigee_km": 482.26262461424176,
      "latitude_deg": 29.120675082280037,
      "longitude_deg": 162.2872243199963,
      "semi_major_axis_km": 6861.116199590127,
      "eccentricity": 0.00010444,
      "inclination_deg": 42.9989,
      "raan_deg": 279.0872,
      "arg_perigee_deg": 254.9936,
      "mean_anomaly_deg": 105.0801,
      "mean_motion_rev_day": 15.27603343
    }
  ]
}